[
    {
        "CCSDS_OMM_VERS": "3.0",
        "COMMENT": "GENERATED VIA SPACE-TRACK.ORG API",
        "CREATION_DATE": "2025-03-02T22:56:18",
        "ORIGINATOR": "18 SPCS",
        "OBJECT_NAME": "BEIDOU 9",
        "OBJECT_ID": "2011-038A",
        "CENTER_NAME": "EARTH",
        "REF_FRAME": "TEME",
        "TIME_SYSTEM": "UTC",
        "MEAN_ELEMENT_THEORY": "SGP4",
        "EPOCH": "2025-03-02T18:36:23.423040",
        "MEAN_MOTION": "1.00253605",
        "ECCENTRICITY": "0.01356920",
        "INCLINATION": "54.5729",
        "RA_OF_ASC_NODE": "169.8883",
        "ARG_OF_PERICENTER": "229.2896",
        "MEAN_ANOMALY": "133.5926",
        "EPHEMERIS_TYPE": "0",
        "CLASSIFICATION_TYPE": "U",
        "NORAD_CAT_ID": "37763",
        "ELEMENT_SET_NO": "999",
        "REV_AT_EPOCH": "4991",
        "BSTAR": "0.00000000000000",
        "MEAN_MOTION_DOT": "-0.00000063",
        "MEAN_MOTION_DDOT": "0.0000000000000",
        "SEMIMAJOR_AXIS": "42169.829",
        "PERIOD": "1436.357",
        "APOAPSIS": "36363.905",
        "PERIAPSIS": "35219.483",
        "OBJECT_TYPE": "PAYLOAD",
        "RCS_SIZE": "LARGE",
        "COUNTRY_CODE": "PRC",
        "LAUNCH_DATE": "2011-07-26",
        "SITE": "XSC",
        "DECAY_DATE": null,
        "FILE": "4657370",
        "GP_ID": "282105724",
        "TLE_LINE0": "0 BEIDOU 9",
        "TLE_LINE1": "1 37763U 11038A   25061.77527110 -.00000063  00000-0  00000+0 0  9992",
        "TLE_LINE2": "2 37763  54.5729 169.8883 0135692 229.2896 133.5926  1.00253605 49911"
    }
]